IDEFIX & ARIANE 42P R/B 
1 27422U 02021B   26053.25324605  .00000284  00000+0  12454-3 0  9997
2 27422  98.5856 352.0456 0010814 230.1195 129.9038 14.31014160241819
AQUA                    
1 27424U 02022A   26053.21579957  .00000887  00000+0  18702-3 0  9999
2 27424  98.4147  20.3025 0001009  47.4655   9.0716 14.61934284266477
CZ-4B R/B               
1 27432U 02024C   26053.15837000  .00000020  00000+0  32893-4 0  9996
2 27432  98.8877 106.6407 0051028  67.7634 357.2091 14.14544658227044
MIDORI II (ADEOS-II)    
1 27597U 02056A   26053.12256766  .00000233  00000+0  10947-3 0  9995
2 27597  98.7742  11.4955 0002045  64.8328 295.3065 14.29272110208072
H-2A R/B                
1 27601U 02056E   26053.30455852  .00000284  00000+0  11403-3 0  9992
2 27601  98.3175  14.2586 0069550 206.6174 318.7174 14.33749332211901
CZ-4B R/B               
1 28059U 03049C   26052.91068767  .00000365  00000+0  95421-4 0  9997
2 28059  98.6864  47.1986 0047025 280.2505  79.3390 14.55002214184303
CZ-2C R/B               
1 28222U 04012C   26053.12081014  .00045955  00000+0  51228-3 0  9994
2 28222  97.7267 116.9594 0014366  11.4198 348.7382 15.62569256201842
SL-16 R/B               
1 28353U 04021B   26053.04169440  .00000202  00000+0  12983-3 0  9991
2 28353  70.9989 265.3333 0003305  45.6678 314.4715 14.14597947120624
CZ-4B R/B               
1 28415U 04035C   26053.07073392  .00007015  00000+0  24969-3 0  9994
2 28415  97.3522  87.5020 0033010  27.1977 333.0983 15.28746449177523
CZ-2C R/B               
1 28480U 04046B   26053.26973007  .00000127  00000+0  62572-4 0  9991
2 28480  98.1990 329.2122 0138937 200.0317 159.5380 14.26986420106308
ARIANE 5 R/B            
1 28499U 04049H   26053.07043274  .00000676  00000+0  80932-4 0  9996
2 28499  98.2600 220.9456 0084994  42.3719 318.4017 14.85232743143479
CZ-2D R/B               
1 28738U 05024B   26053.30840725  .00043202  00000+0  56107-3 0  9996
2 28738  97.3614  67.9079 0007477  83.3829 276.8278 15.58670626137384
